IRIDIUM 106             
1 41917U 17003A   25212.50914554  .00000014  00000+0 -21296-5 0  9998
2 41917  86.3957 222.4792 0001848 101.4280 258.7123 14.34217512447246
IRIDIUM 103             
1 41918U 17003B   25212.07784982  .00000013  00000+0 -23706-5 0  9998
2 41918  86.3952 222.5602 0001955  76.8631 283.2783 14.34217527447215
IRIDIUM 109             
1 41919U 17003C   25212.57257240 -.00000012  00000+0 -11473-4 0  9993
2 41919  86.3957 222.4077 0002232  86.2300 273.9151 14.34217366447264
IRIDIUM 102             
1 41920U 17003D   25212.12224850  .00000016  00000+0 -14112-5 0  9994
2 41920  86.3955 222.5263 0002307  89.7757 270.3703 14.34217530447266
IRIDIUM 105             
1 41921U 17003E   25211.95344001  .00000241  00000+0  78890-4 0  9997
2 41921  86.4004 191.0805 0002240  84.5170 275.6281 14.34216733449099
IRIDIUM 104             
1 41922U 17003F   25212.48377630  .00000034  00000+0  50234-5 0  9994
2 41922  86.3953 222.4129 0002382  80.5663 279.5802 14.34217759447303
IRIDIUM 114             
1 41923U 17003G   25212.49011799  .00000059  00000+0  13882-4 0  9991
2 41923  86.3952 222.3945 0002033  86.4221 273.7207 14.34217891447308
IRIDIUM 108             
1 41924U 17003H   25211.96025925  .00000009  00000+0 -39125-5 0  9994
2 41924  86.4000 190.9768 0002168  92.1282 268.0162 14.34217664449067
